{"type": "FeatureCollection", "features": [ {"type": "Feature", "properties": {"norad_id": 43622, "name": "BEIDOU-3 M13 (C32)", "group": "beidou", "lat": -35.943642266273756, "lon": 40.044401638428106, "alt_km": 21516.80826236264, "timestamp": "2025-12-15T07:02:37.881664+00:00", "meta": {"OBJECT_NAME": "BEIDOU-3 M13 (C32)", "OBJECT_ID": "2018-072A", "EPOCH": "2025-12-12T16:12:36.163584", "MEAN_MOTION": 1.8623072, "ECCENTRICITY": 0.0005872, "INCLINATION": 56.4592, "RA_OF_ASC_NODE": 68.8222, "ARG_OF_PERICENTER": 298.9421, "MEAN_ANOMALY": 61.0187, "EPHEMERIS_TYPE": 0, "CLASSIFICATION_TYPE": "U", "NORAD_CAT_ID": 43622, "ELEMENT_SET_NO": 999, "REV_AT_EPOCH": 4918, "BSTAR": 0, "MEAN_MOTION_DOT": -7.4e-07, "MEAN_MOTION_DDOT": 0}, "tle": {"line1": "1 43622U 18072A   25346.67541856 -.00000074  00000+0  00000+0 0  9997", "line2": "2 43622  56.4592  68.8222 0005872 298.9421  61.0187  1.86230720 49189"}}, "geometry": {"type": "Point", "coordinates": [40.044401638428106, -35.943642266273756]}}, {"type": "Feature", "properties": {"norad_id": 43623, "name": "BEIDOU-3 M14 (C33)", "group": "beidou", "lat": 36.49579871604289, "lon": 98.07607988784959, "alt_km": 21520.646188086823, "timestamp": "2025-12-15T07:02:37.881675+00:00", "meta": {"OBJECT_NAME": "BEIDOU-3 M14 (C33)", "OBJECT_ID": "2018-072B", "EPOCH": "2025-12-14T16:31:43.622976", "MEAN_MOTION": 1.86230968, "ECCENTRICITY": 0.00033007, "INCLINATION": 56.4633, "RA_OF_ASC_NODE": 68.7492, "ARG_OF_PERICENTER": 334.4118, "MEAN_ANOMALY": 25.5906, "EPHEMERIS_TYPE": 0, "CLASSIFICATION_TYPE": "U", "NORAD_CAT_ID": 43623, "ELEMENT_SET_NO": 999, "REV_AT_EPOCH": 4921, "BSTAR": 0, "MEAN_MOTION_DOT": -8.3e-07, "MEAN_MOTION_DDOT": 0}, "tle": {"line1": "1 43623U 18072B   25348.68869934 -.00000083  00000+0  00000+0 0  9991", "line2": "2 43623  56.4633  68.7492 0003300 334.4118  25.5906  1.86230968 49219"}}, "geometry": {"type": "Point", "coordinates": [98.07607988784959, 36.49579871604289]}}, {"type": "Feature", "properties": {"norad_id": 43647, "name": "BEIDOU-3 M16 (C35)", "group": "beidou", "lat": -44.86250671541279, "lon": -99.32705412637222, "alt_km": 21529.45387871228, "timestamp": "2025-12-15T07:02:37.881686+00:00", "meta": {"OBJECT_NAME": "BEIDOU-3 M16 (C35)", "OBJECT_ID": "2018-078A", "EPOCH": "2025-12-13T05:39:20.780352", "MEAN_MOTION": 1.8623234, "ECCENTRICITY": 0.00072054, "INCLINATION": 54.2615, "RA_OF_ASC_NODE": 306.5038, "ARG_OF_PERICENTER": 19.3609, "MEAN_ANOMALY": 340.6562, "EPHEMERIS_TYPE": 0, "CLASSIFICATION_TYPE": "U", "NORAD_CAT_ID": 43647, "ELEMENT_SET_NO": 999, "REV_AT_EPOCH": 4869, "BSTAR": 0, "MEAN_MOTION_DOT": -9.7e-07, "MEAN_MOTION_DDOT": 0}, "tle": {"line1": "1 43647U 18078A   25347.23565718 -.00000097  00000+0  00000+0 0  9991", "line2": "2 43647  54.2615 306.5038 0007205  19.3609 340.6562  1.86232340 48698"}}, "geometry": {"type": "Point", "coordinates": [-99.32705412637222, -44.86250671541279]}}, {"type": "Feature", "properties": {"norad_id": 43648, "name": "BEIDOU-3 M15 (C34)", "group": "beidou", "lat": -26.309272960039568, "lon": 147.25679464017708, "alt_km": 21541.455319710032, "timestamp": "2025-12-15T07:02:37.881697+00:00", "meta": {"OBJECT_NAME": "BEIDOU-3 M15 (C34)", "OBJECT_ID": "2018-078B", "EPOCH": "2025-12-14T10:31:50.376000", "MEAN_MOTION": 1.86231962, "ECCENTRICITY": 0.00037442, "INCLINATION": 54.256, "RA_OF_ASC_NODE": 306.4619, "ARG_OF_PERICENTER": 18.2942, "MEAN_ANOMALY": 341.7074, "EPHEMERIS_TYPE": 0, "CLASSIFICATION_TYPE": "U", "NORAD_CAT_ID": 43648, "ELEMENT_SET_NO": 999, "REV_AT_EPOCH": 4873, "BSTAR": 0, "MEAN_MOTION_DOT": -1e-06, "MEAN_MOTION_DDOT": 0}, "tle": {"line1": "1 43648U 18078B   25348.43877750 -.00000100  00000+0  00000+0 0  9992", "line2": "2 43648  54.2560 306.4619 0003744  18.2942 341.7074  1.86231962 48738"}}, "geometry": {"type": "Point", "coordinates": [147.25679464017708, -26.309272960039568]}}, {"type": "Feature", "properties": {"norad_id": 43683, "name": "BEIDOU-3 G1 (C59)", "group": "beidou", "lat": -1.9162199043370263, "lon": -30.115214392709863, "alt_km": 35793.582205774954, "timestamp": "2025-12-15T07:02:37.881709+00:00", "meta": {"OBJECT_NAME": "BEIDOU-3 G1 (C59)", "OBJECT_ID": "2018-085A", "EPOCH": "2025-12-14T22:38:45.675744", "MEAN_MOTION": 1.00270224, "ECCENTRICITY": 0.00016305, "INCLINATION": 2.6134, "RA_OF_ASC_NODE": 102.9077, "ARG_OF_PERICENTER": 55.4139, "MEAN_ANOMALY": 45.2856, "EPHEMERIS_TYPE": 0, "CLASSIFICATION_TYPE": "U", "NORAD_CAT_ID": 43683, "ELEMENT_SET_NO": 999, "REV_AT_EPOCH": 2621, "BSTAR": 0, "MEAN_MOTION_DOT": -2.58e-06, "MEAN_MOTION_DDOT": 0}, "tle": {"line1": "1 43683U 18085A   25348.94358421 -.00000258  00000+0  00000+0 0  9998", "line2": "2 43683   2.6134 102.9077 0001630  55.4139  45.2856  1.00270224 26214"}}, "geometry": {"type": "Point", "coordinates": [-30.115214392709863, -1.9162199043370263]}}, {"type": "Feature", "properties": {"norad_id": 43706, "name": "BEIDOU-3 M17 (C36)", "group": "beidou", "lat": 50.91990470080499, "lon": -54.30273825488721, "alt_km": 21538.371257883668, "timestamp": "2025-12-15T07:02:37.881720+00:00", "meta": {"OBJECT_NAME": "BEIDOU-3 M17 (C36)", "OBJECT_ID": "2018-093A", "EPOCH": "2025-12-14T07:59:38.666688", "MEAN_MOTION": 1.86228504, "ECCENTRICITY": 0.00061786, "INCLINATION": 54.1727, "RA_OF_ASC_NODE": 188.5675, "ARG_OF_PERICENTER": 307.5384, "MEAN_ANOMALY": 235.2938, "EPHEMERIS_TYPE": 0, "CLASSIFICATION_TYPE": "U", "NORAD_CAT_ID": 43706, "ELEMENT_SET_NO": 999, "REV_AT_EPOCH": 4809, "BSTAR": 0, "MEAN_MOTION_DOT": 1.06e-06, "MEAN_MOTION_DDOT": 0}, "tle": {"line1": "1 43706U 18093A   25348.33308642  .00000106  00000+0  00000+0 0  9997", "line2": "2 43706  54.1727 188.5675 0006178 307.5384 235.2938  1.86228504 48099"}}, "geometry": {"type": "Point", "coordinates": [-54.30273825488721, 50.91990470080499]}}, {"type": "Feature", "properties": {"norad_id": 43707, "name": "BEIDOU-3 M18 (C37)", "group": "beidou", "lat": -15.73941421626578, "lon": 20.283162903688634, "alt_km": 21546.535239176064, "timestamp": "2025-12-15T07:02:37.881731+00:00", "meta": {"OBJECT_NAME": "BEIDOU-3 M18 (C37)", "OBJECT_ID": "2018-093B", "EPOCH": "2025-12-12T20:21:07.427232", "MEAN_MOTION": 1.86226583, "ECCENTRICITY": 0.00063344, "INCLINATION": 54.1732, "RA_OF_ASC_NODE": 188.6097, "ARG_OF_PERICENTER": 352.9631, "MEAN_ANOMALY": 7.0898, "EPHEMERIS_TYPE": 0, "CLASSIFICATION_TYPE": "U", "NORAD_CAT_ID": 43707, "ELEMENT_SET_NO": 999, "REV_AT_EPOCH": 4806, "BSTAR": 0, "MEAN_MOTION_DOT": 8.8e-07, "MEAN_MOTION_DDOT": 0}, "tle": {"line1": "1 43707U 18093B   25346.84800263  .00000088  00000+0  00000+0 0  9997", "line2": "2 43707  54.1732 188.6097 0006334 352.9631   7.0898  1.86226583 48060"}}, "geometry": {"type": "Point", "coordinates": [20.283162903688634, -15.73941421626578]}}, {"type": "Feature", "properties": {"norad_id": 44204, "name": "BEIDOU-3 IGSO-1 (C38)", "group": "beidou", "lat": -57.81560983589782, "lon": -63.129653085737154, "alt_km": 35714.841011177574, "timestamp": "2025-12-15T07:02:37.881743+00:00", "meta": {"OBJECT_NAME": "BEIDOU-3 IGSO-1 (C38)", "OBJECT_ID": "2019-023A", "EPOCH": "2025-11-19T14:15:02.708640", "MEAN_MOTION": 1.00252177, "ECCENTRICITY": 0.0026966, "INCLINATION": 58.4003, "RA_OF_ASC_NODE": 39.8168, "ARG_OF_PERICENTER": 221.2202, "MEAN_ANOMALY": 126.9723, "EPHEMERIS_TYPE": 0, "CLASSIFICATION_TYPE": "U", "NORAD_CAT_ID": 44204, "ELEMENT_SET_NO": 999, "REV_AT_EPOCH": 510, "BSTAR": 0, "MEAN_MOTION_DOT": -2.26e-06, "MEAN_MOTION_DDOT": 0}, "tle": {"line1": "1 44204U 19023A   25323.59378135 -.00000226  00000+0  00000+0 0  9994", "line2": "2 44204  58.4003  39.8168 0026966 221.2202 126.9723  1.00252177  5102"}}, "geometry": {"type": "Point", "coordinates": [-63.129653085737154, -57.81560983589782]}}, {"type": "Feature", "properties": {"norad_id": 44231, "name": "BEIDOU-2 G8 (C01)", "group": "beidou", "lat": -1.6424690132663513, "lon": -25.690281071040204, "alt_km": 35750.76777027531, "timestamp": "2025-12-15T07:02:37.881759+00:00", "meta": {"OBJECT_NAME": "BEIDOU-2 G8 (C01)", "OBJECT_ID": "2019-027A", "EPOCH": "2025-12-14T22:39:45.580320", "MEAN_MOTION": 1.00267531, "ECCENTRICITY": 0.00087597, "INCLINATION": 1.6677, "RA_OF_ASC_NODE": 74.714, "ARG_OF_PERICENTER": 257.4473, "MEAN_ANOMALY": 236.1, "EPHEMERIS_TYPE": 0, "CLASSIFICATION_TYPE": "U", "NORAD_CAT_ID": 44231, "ELEMENT_SET_NO": 999, "REV_AT_EPOCH": 2423, "BSTAR": 0, "MEAN_MOTION_DOT": -2.29e-06, "MEAN_MOTION_DDOT": 0}, "tle": {"line1": "1 44231U 19027A   25348.94427755 -.00000229  00000+0  00000+0 0  9990", "line2": "2 44231   1.6677  74.7140 0008759 257.4473 236.1000  1.00267531 24235"}}, "geometry": {"type": "Point", "coordinates": [-25.690281071040204, -1.6424690132663513]}}, {"type": "Feature", "properties": {"norad_id": 44337, "name": "BEIDOU-3 IGSO-2 (C39)", "group": "beidou", "lat": 25.357905033540824, "lon": -38.78751660064506, "alt_km": 35690.7264420044, "timestamp": "2025-12-15T07:02:37.881771+00:00", "meta": {"OBJECT_NAME": "BEIDOU-3 IGSO-2 (C39)", "OBJECT_ID": "2019-035A", "EPOCH": "2025-12-13T21:01:33.834720", "MEAN_MOTION": 1.00271067, "ECCENTRICITY": 0.00372664, "INCLINATION": 55.226, "RA_OF_ASC_NODE": 160.4907, "ARG_OF_PERICENTER": 202.3075, "MEAN_ANOMALY": 154.8952, "EPHEMERIS_TYPE": 0, "CLASSIFICATION_TYPE": "U", "NORAD_CAT_ID": 44337, "ELEMENT_SET_NO": 999, "REV_AT_EPOCH": 2380, "BSTAR": 0, "MEAN_MOTION_DOT": -3.9e-07, "MEAN_MOTION_DDOT": 0}, "tle": {"line1": "1 44337U 19035A   25347.87608605 -.00000039  00000+0  00000+0 0  9991", "line2": "2 44337  55.2260 160.4907 0037266 202.3075 154.8952  1.00271067 23804"}}, "geometry": {"type": "Point", "coordinates": [-38.78751660064506, 25.357905033540824]}}]}